{"type": "FeatureCollection", "features": [ {"type": "Feature", "properties": {"norad_id": 33870, "name": "IRIDIUM 33 DEB", "group": "iridium-33-debris", "lat": -3.548766738736738, "lon": 51.80235647144669, "alt_km": 754.0536291309418, "timestamp": "2025-12-27T06:41:31.310896+00:00", "meta": {"OBJECT_NAME": "IRIDIUM 33 DEB", "OBJECT_ID": "1997-051AP", "EPOCH": "2025-12-26T21:33:28.768032", "MEAN_MOTION": 14.4592171, "ECCENTRICITY": 0.00227616, "INCLINATION": 86.3732, "RA_OF_ASC_NODE": 52.1909, "ARG_OF_PERICENTER": 133.3479, "MEAN_ANOMALY": 43.5978, "EPHEMERIS_TYPE": 0, "CLASSIFICATION_TYPE": "U", "NORAD_CAT_ID": 33870, "ELEMENT_SET_NO": 999, "REV_AT_EPOCH": 88341, "BSTAR": 0.00079228823, "MEAN_MOTION_DOT": 2.845e-05, "MEAN_MOTION_DDOT": 0}, "tle": {"line1": "1 33870U 97051AP  25360.89824963  .00002845  00000+0  79229-3 0  9998", "line2": "2 33870  86.3732  52.1909 0022761 133.3479  43.5978 14.45921710883410"}}, "geometry": {"type": "Point", "coordinates": [51.80235647144669, -3.548766738736738]}}, {"type": "Feature", "properties": {"norad_id": 33881, "name": "IRIDIUM 33 DEB", "group": "iridium-33-debris", "lat": 69.31220033677623, "lon": 110.05908980966085, "alt_km": 673.5689123402435, "timestamp": "2025-12-27T06:41:31.310906+00:00", "meta": {"OBJECT_NAME": "IRIDIUM 33 DEB", "OBJECT_ID": "1997-051BA", "EPOCH": "2025-12-26T19:24:14.995296", "MEAN_MOTION": 14.56833072, "ECCENTRICITY": 0.00610489, "INCLINATION": 86.3854, "RA_OF_ASC_NODE": 100.6273, "ARG_OF_PERICENTER": 129.1148, "MEAN_ANOMALY": 356.0347, "EPHEMERIS_TYPE": 0, "CLASSIFICATION_TYPE": "U", "NORAD_CAT_ID": 33881, "ELEMENT_SET_NO": 999, "REV_AT_EPOCH": 87705, "BSTAR": 0.0021984716, "MEAN_MOTION_DOT": 0.00010127, "MEAN_MOTION_DDOT": 0}, "tle": {"line1": "1 33881U 97051BA  25360.80850689  .00010127  00000+0  21985-2 0  9992", "line2": "2 33881  86.3854 100.6273 0061048 129.1148 356.0347 14.56833072877057"}}, "geometry": {"type": "Point", "coordinates": [110.05908980966085, 69.31220033677623]}}, {"type": "Feature", "properties": {"norad_id": 33884, "name": "IRIDIUM 33 DEB", "group": "iridium-33-debris", "lat": 27.42283118025154, "lon": 5.141733771926383, "alt_km": 638.6399379212398, "timestamp": "2025-12-27T06:41:31.310917+00:00", "meta": {"OBJECT_NAME": "IRIDIUM 33 DEB", "OBJECT_ID": "1997-051BD", "EPOCH": "2025-12-26T11:45:10.238112", "MEAN_MOTION": 14.77706795, "ECCENTRICITY": 0.0008805, "INCLINATION": 86.3712, "RA_OF_ASC_NODE": 3.6109, "ARG_OF_PERICENTER": 269.9643, "MEAN_ANOMALY": 242.2854, "EPHEMERIS_TYPE": 0, "CLASSIFICATION_TYPE": "U", "NORAD_CAT_ID": 33884, "ELEMENT_SET_NO": 999, "REV_AT_EPOCH": 89050, "BSTAR": 0.0015056, "MEAN_MOTION_DOT": 0.00010823, "MEAN_MOTION_DDOT": 0}, "tle": {"line1": "1 33884U 97051BD  25360.48970183  .00010823  00000+0  15056-2 0  9996", "line2": "2 33884  86.3712   3.6109 0008805 269.9643 242.2854 14.77706795890506"}}, "geometry": {"type": "Point", "coordinates": [5.141733771926383, 27.42283118025154]}}, {"type": "Feature", "properties": {"norad_id": 33886, "name": "IRIDIUM 33 DEB", "group": "iridium-33-debris", "lat": -55.96390398253094, "lon": 55.733227087395136, "alt_km": 782.5367888918327, "timestamp": "2025-12-27T06:41:31.310928+00:00", "meta": {"OBJECT_NAME": "IRIDIUM 33 DEB", "OBJECT_ID": "1997-051BF", "EPOCH": "2025-12-26T21:43:41.564352", "MEAN_MOTION": 14.36068458, "ECCENTRICITY": 0.00136879, "INCLINATION": 86.3819, "RA_OF_ASC_NODE": 61.2657, "ARG_OF_PERICENTER": 191.7566, "MEAN_ANOMALY": 342.3613, "EPHEMERIS_TYPE": 0, "CLASSIFICATION_TYPE": "U", "NORAD_CAT_ID": 33886, "ELEMENT_SET_NO": 999, "REV_AT_EPOCH": 88255, "BSTAR": 0.00021441313, "MEAN_MOTION_DOT": 6.44e-06, "MEAN_MOTION_DDOT": 0}, "tle": {"line1": "1 33886U 97051BF  25360.90534218  .00000644  00000+0  21441-3 0  9996", "line2": "2 33886  86.3819  61.2657 0013687 191.7566 342.3613 14.36068458882557"}}, "geometry": {"type": "Point", "coordinates": [55.733227087395136, -55.96390398253094]}}, {"type": "Feature", "properties": {"norad_id": 33887, "name": "IRIDIUM 33 DEB", "group": "iridium-33-debris", "lat": -58.7313335308904, "lon": -8.98358594030801, "alt_km": 777.5331155635013, "timestamp": "2025-12-27T06:41:31.310938+00:00", "meta": {"OBJECT_NAME": "IRIDIUM 33 DEB", "OBJECT_ID": "1997-051BG", "EPOCH": "2025-12-26T22:42:17.748000", "MEAN_MOTION": 14.37234028, "ECCENTRICITY": 0.00060023, "INCLINATION": 86.3043, "RA_OF_ASC_NODE": 357.2696, "ARG_OF_PERICENTER": 173.5573, "MEAN_ANOMALY": 206.7175, "EPHEMERIS_TYPE": 0, "CLASSIFICATION_TYPE": "U", "NORAD_CAT_ID": 33887, "ELEMENT_SET_NO": 999, "REV_AT_EPOCH": 88369, "BSTAR": 0.00017864907, "MEAN_MOTION_DOT": 5.52e-06, "MEAN_MOTION_DDOT": 0}, "tle": {"line1": "1 33887U 97051BG  25360.94603875  .00000552  00000+0  17865-3 0  9990", "line2": "2 33887  86.3043 357.2696 0006002 173.5573 206.7175 14.37234028883698"}}, "geometry": {"type": "Point", "coordinates": [-8.98358594030801, -58.7313335308904]}}, {"type": "Feature", "properties": {"norad_id": 33953, "name": "IRIDIUM 33 DEB", "group": "iridium-33-debris", "lat": 25.60261406751943, "lon": 49.20434255640444, "alt_km": 696.6670726042648, "timestamp": "2025-12-27T06:41:31.310948+00:00", "meta": {"OBJECT_NAME": "IRIDIUM 33 DEB", "OBJECT_ID": "1997-051BN", "EPOCH": "2025-12-26T14:46:02.739936", "MEAN_MOTION": 14.55451821, "ECCENTRICITY": 0.0017451, "INCLINATION": 86.3834, "RA_OF_ASC_NODE": 47.7557, "ARG_OF_PERICENTER": 60.1468, "MEAN_ANOMALY": 91.3298, "EPHEMERIS_TYPE": 0, "CLASSIFICATION_TYPE": "U", "NORAD_CAT_ID": 33953, "ELEMENT_SET_NO": 999, "REV_AT_EPOCH": 88505, "BSTAR": 0.0011159, "MEAN_MOTION_DOT": 4.881e-05, "MEAN_MOTION_DDOT": 0}, "tle": {"line1": "1 33953U 97051BN  25360.61530949  .00004881  00000+0  11159-2 0  9997", "line2": "2 33953  86.3834  47.7557 0017451  60.1468  91.3298 14.55451821885059"}}, "geometry": {"type": "Point", "coordinates": [49.20434255640444, 25.60261406751943]}}, {"type": "Feature", "properties": {"norad_id": 33960, "name": "IRIDIUM 33 DEB", "group": "iridium-33-debris", "lat": -33.72667627569999, "lon": -79.85026297504068, "alt_km": 615.2510703968092, "timestamp": "2025-12-27T06:41:31.310959+00:00", "meta": {"OBJECT_NAME": "IRIDIUM 33 DEB", "OBJECT_ID": "1997-051BV", "EPOCH": "2025-12-26T19:47:13.318944", "MEAN_MOTION": 14.85911573, "ECCENTRICITY": 0.00069591, "INCLINATION": 86.2536, "RA_OF_ASC_NODE": 282.8713, "ARG_OF_PERICENTER": 37.5065, "MEAN_ANOMALY": 19.8748, "EPHEMERIS_TYPE": 0, "CLASSIFICATION_TYPE": "U", "NORAD_CAT_ID": 33960, "ELEMENT_SET_NO": 999, "REV_AT_EPOCH": 89076, "BSTAR": 0.0032209433, "MEAN_MOTION_DOT": 0.00028197, "MEAN_MOTION_DDOT": 0}, "tle": {"line1": "1 33960U 97051BV  25360.82445971  .00028197  00000+0  32209-2 0  9993", "line2": "2 33960  86.2536 282.8713 0006959  37.5065  19.8748 14.85911573890760"}}, "geometry": {"type": "Point", "coordinates": [-79.85026297504068, -33.72667627569999]}}, {"type": "Feature", "properties": {"norad_id": 33966, "name": "IRIDIUM 33 DEB", "group": "iridium-33-debris", "lat": -30.501395067116256, "lon": -138.0827209650881, "alt_km": 730.4009730250527, "timestamp": "2025-12-27T06:41:31.310969+00:00", "meta": {"OBJECT_NAME": "IRIDIUM 33 DEB", "OBJECT_ID": "1997-051CB", "EPOCH": "2025-12-26T15:23:33.736416", "MEAN_MOTION": 14.49646818, "ECCENTRICITY": 0.0008881, "INCLINATION": 86.391, "RA_OF_ASC_NODE": 40.0602, "ARG_OF_PERICENTER": 145.5538, "MEAN_ANOMALY": 340.1487, "EPHEMERIS_TYPE": 0, "CLASSIFICATION_TYPE": "U", "NORAD_CAT_ID": 33966, "ELEMENT_SET_NO": 999, "REV_AT_EPOCH": 88643, "BSTAR": 0.00051075, "MEAN_MOTION_DOT": 1.983e-05, "MEAN_MOTION_DDOT": 0}, "tle": {"line1": "1 33966U 97051CB  25360.64136269  .00001983  00000+0  51075-3 0  9993", "line2": "2 33966  86.3910  40.0602 0008881 145.5538 340.1487 14.49646818886431"}}, "geometry": {"type": "Point", "coordinates": [-138.0827209650881, -30.501395067116256]}}, {"type": "Feature", "properties": {"norad_id": 34071, "name": "IRIDIUM 33 DEB", "group": "iridium-33-debris", "lat": -86.33941652436077, "lon": -75.98423935203549, "alt_km": 741.1080038622131, "timestamp": "2025-12-27T06:41:31.310979+00:00", "meta": {"OBJECT_NAME": "IRIDIUM 33 DEB", "OBJECT_ID": "1997-051CE", "EPOCH": "2025-12-26T22:49:20.921376", "MEAN_MOTION": 14.4952889, "ECCENTRICITY": 0.00097956, "INCLINATION": 86.3453, "RA_OF_ASC_NODE": 11.6503, "ARG_OF_PERICENTER": 69.548, "MEAN_ANOMALY": 290.6775, "EPHEMERIS_TYPE": 0, "CLASSIFICATION_TYPE": "U", "NORAD_CAT_ID": 34071, "ELEMENT_SET_NO": 999, "REV_AT_EPOCH": 88540, "BSTAR": 0.00073767559, "MEAN_MOTION_DOT": 2.849e-05, "MEAN_MOTION_DDOT": 0}, "tle": {"line1": "1 34071U 97051CE  25360.95093659  .00002849  00000+0  73768-3 0  9995", "line2": "2 34071  86.3453  11.6503 0009795  69.5480 290.6775 14.49528890885405"}}, "geometry": {"type": "Point", "coordinates": [-75.98423935203549, -86.33941652436077]}}, {"type": "Feature", "properties": {"norad_id": 34077, "name": "IRIDIUM 33 DEB", "group": "iridium-33-debris", "lat": -18.74049826719051, "lon": -133.66979333029744, "alt_km": 687.5394994869703, "timestamp": "2025-12-27T06:41:31.310989+00:00", "meta": {"OBJECT_NAME": "IRIDIUM 33 DEB", "OBJECT_ID": "1997-051CL", "EPOCH": "2025-12-26T15:37:29.746272", "MEAN_MOTION": 14.65017306, "ECCENTRICITY": 0.00085863, "INCLINATION": 86.3849, "RA_OF_ASC_NODE": 45.3778, "ARG_OF_PERICENTER": 353.3839, "MEAN_ANOMALY": 136.4278, "EPHEMERIS_TYPE": 0, "CLASSIFICATION_TYPE": "U", "NORAD_CAT_ID": 34077, "ELEMENT_SET_NO": 999, "REV_AT_EPOCH": 88536, "BSTAR": 0.0015938019, "MEAN_MOTION_DOT": 8.57e-05, "MEAN_MOTION_DDOT": 0}, "tle": {"line1": "1 34077U 97051CL  25360.65103873  .00008570  00000+0  15938-2 0  9999", "line2": "2 34077  86.3849  45.3778 0008586 353.3839 136.4278 14.65017306885360"}}, "geometry": {"type": "Point", "coordinates": [-133.66979333029744, -18.74049826719051]}}]}